{
    "links": {
        "self": "http://www.neowsapp.com/rest/v1/neo/3989167?api_key=iIulBulltgU6a56xZRHN4H3l9WmuAYTsLGpBGhQ2"
    },
    "id": "3989167",
    "neo_reference_id": "3989167",
    "name": "(2020 BL7)",
    "designation": "2020 BL7",
    "nasa_jpl_url": "http://ssd.jpl.nasa.gov/sbdb.cgi?sstr=3989167",
    "absolute_magnitude_h": 24.989,
    "estimated_diameter": {
        "kilometers": {
            "estimated_diameter_min": 0.0267149876,
            "estimated_diameter_max": 0.0597365282
        },
        "meters": {
            "estimated_diameter_min": 26.7149875797,
            "estimated_diameter_max": 59.7365282462
        },
        "miles": {
            "estimated_diameter_min": 0.0165999185,
            "estimated_diameter_max": 0.0371185463
        },
        "feet": {
            "estimated_diameter_min": 87.6475998509,
            "estimated_diameter_max": 195.9859913312
        }
    },
    "is_potentially_hazardous_asteroid": false,
    "close_approach_data": [
        {
            "close_approach_date": "2020-02-19",
            "close_approach_date_full": "2020-Feb-19 20:28",
            "epoch_date_close_approach": 1582144080000,
            "relative_velocity": {
                "kilometers_per_second": "8.5402107016",
                "kilometers_per_hour": "30744.7585256241",
                "miles_per_hour": "19103.5973183246"
            },
            "miss_distance": {
                "astronomical": "0.0356490978",
                "lunar": "13.8674990442",
                "kilometers": "5333029.098301686",
                "miles": "3313790.6191718268"
            },
            "orbiting_body": "Earth"
        }
    ],
    "orbital_data": {
        "orbit_id": "4",
        "orbit_determination_date": "2020-02-05 05:24:40",
        "first_observation_date": "2020-01-23",
        "last_observation_date": "2020-02-05",
        "data_arc_in_days": 13,
        "observations_used": 22,
        "orbit_uncertainty": "8",
        "minimum_orbit_intersection": ".0348322",
        "jupiter_tisserand_invariant": "3.844",
        "epoch_osculation": "2458873.5",
        "eccentricity": ".4684102394006204",
        "semi_major_axis": "1.857988991605531",
        "inclination": "8.700424077810643",
        "ascending_node_longitude": "320.0026384513243",
        "orbital_period": "925.0455784588454",
        "perihelion_distance": ".9876879232438667",
        "perihelion_argument": "212.2106101689047",
        "aphelion_distance": "2.728290059967195",
        "perihelion_time": "2458917.816503850591",
        "mean_anomaly": "342.7533456105022",
        "mean_motion": ".3891700132222362",
        "equinox": "J2000",
        "orbit_class": {
            "orbit_class_type": "APO",
            "orbit_class_description": "Near-Earth asteroid orbits which cross the Earth’s orbit similar to that of 1862 Apollo",
            "orbit_class_range": "a (semi-major axis) > 1.0 AU; q (perihelion) < 1.017 AU"
        }
    },
    "is_sentry_object": false
}